NNSS 19 [?]             
1 04507U 70067A   21272.44853204  .00000088  00000-0  10866-3 0  9990
2 04507  89.9030 241.6011 0174237  60.0836 301.7493 13.50780686514921
NNSS O-20 [?]           
1 06909U 73081A   21272.78755131  .00000089  00000-0  81713-4 0  9995
2 06909  89.8089 282.5136 0156520 358.4334   1.6317 13.70612417593584
TRANSAT [?]             
1 10457U 77106A   21272.16120346  .00000037  00000-0  43803-4 0  9997
2 10457  89.6951 130.6546 0023812 302.5342 170.7155 13.48651687160447
NOVA I [?]              
1 12458U 81044A   21272.46704727  .00000047  00000-0  89856-4 0  9999
2 12458  89.8927 110.3784 0014948  24.1194  36.7653 13.23041801948831
NOVA 3 [?]              
1 15362U 84110A   21272.45075028  .00000049  00000-0  95952-4 0  9993
2 15362  90.0870  64.6510 0030176 239.7872 174.0283 13.22811328784005
OSCAR 30 [?]            
1 15935U 85066A   21272.70570855  .00000074  00000-0  11570-3 0  9997
2 15935  90.1682  73.4573 0171039  93.8484 279.6280 13.35721862759662
OSCAR 24 [?]            
1 15936U 85066B   21272.67874515  .00000056  00000-0  82814-4 0  9994
2 15936  90.1621  65.5965 0171410  99.3440 273.6749 13.35584346761738
POLAR BEAR [?]          
1 17070U 86088A   21273.01882213  .00000067  00000-0  57884-4 0  9994
2 17070  89.5444 249.7700 0041032  69.5126 357.7095 13.74833216749160
OSCAR 27 [?]            
1 18361U 87080A   21272.38046546  .00000067  00000-0  99655-4 0  9993
2 18361  90.3276  25.7275 0102661 301.2016  57.9101 13.44528585669239
OSCAR 29 [?]            
1 18362U 87080B   21272.80566075  .00000056  00000-0  80740-4 0  9998
2 18362  90.3288  26.0439 0104711 320.0314 154.5191 13.44122748669141
OSCAR 23 [?]            
1 19070U 88033A   21272.44741536  .00000034  00000-0  48121-4 0  9994
2 19070  90.3448 328.2288 0191767 128.9694 244.2893 13.27494758618827
OSCAR 32 [?]            
1 19071U 88033B   21272.72316137  .00000026  00000-0  32515-4 0  9992
2 19071  90.3449 328.3178 0190187 116.5004 357.8796 13.27676289619376
NOVA 11 [?]             
1 19223U 88052A   21272.71235025  .00000055  00000-0  11000-3 0  9994
2 19223  89.9663  81.5858 0028742 284.7685  86.2043 13.22725235606814
OSCAR 25 [?]            
1 19419U 88074A   21272.58072994  .00000060  00000-0  88803-4 0  9996
2 19419  90.0066  17.8133 0094674 305.3904  64.9747 13.42260877620447
OSCAR 31 [?]            
1 19420U 88074B   21272.52292828  .00000058  00000-0  85905-4 0  9999
2 19420  90.0076  17.9627 0092749 299.6372  71.2934 13.42276260620547
NOAA 1 [-]              
1 04793U 70106A   21272.43479171 -.00000055  00000-0 -68213-4 0  9993
2 04793 101.5979 337.4287 0032019 110.0518 261.5670 12.54000820324875
NOAA 2 (ITOS-D) [-]     
1 06235U 72082A   21272.80762972 -.00000019  00000-0  16687-3 0  9992
2 06235 101.9175 248.7907 0003711 210.7632 212.1370 12.53139361239556
NOAA 3 [-]              
1 06920U 73086A   21272.47493414 -.00000023  00000-0  16796-3 0  9999
2 06920 102.1710 248.5968 0006830  51.7002  60.8722 12.40342362168439
NOAA 4 [-]              
1 07529U 74089A   21273.17674716 -.00000025  00000-0  12971-3 0  9996
2 07529 101.8757 247.4408 0008633 242.9476 127.8573 12.53151195144181
NOAA 5 [-]              
1 09057U 76077A   21272.68361904 -.00000042  00000-0  21419-4 0  9997
2 09057 102.0561 238.8782 0009538 262.1356 271.7366 12.37763131 41704
TIROS N [-]             
1 11060U 78096A   21273.18043692  .00000046  00000-0  43062-4 0  9995
2 11060  98.6768 328.2984 0010970 167.2990 192.8464 14.18324256434956
NOAA 6 [-]              
1 11416U 79057A   21272.45971248  .00000063  00000-0  38899-4 0  9995
2 11416  98.6689 277.8846 0009504 313.4233  46.6160 14.33656088204126
NOAA 7 [-]              
1 12553U 81059A   21272.80473964 -.00000025  00000-0  10215-4 0  9995
2 12553  99.0387 308.4710 0012254 133.5551 226.6643 14.17302578 81099
NOAA 8 [-]              
1 13923U 83022A   21272.70513591  .00000034  00000-0  31023-4 0  9998
2 13923  98.6645 259.6113 0014041 251.4607 108.5049 14.28748278  5430
NOAA 9 [-]              
1 15427U 84123A   21272.81462244  .00000050  00000-0  48408-4 0  9995
2 15427  99.0062 236.6586 0014689 180.7785 238.6766 14.16145060899953
NOAA 10 [-]             
1 16969U 86073A   21272.83040855  .00000035  00000-0  31460-4 0  9998
2 16969  98.5429 259.1772 0012328   2.6200  60.0834 14.28146110823898
NOAA 11 [-]             
1 19531U 88089A   21272.47151724  .00000005  00000-0  23504-4 0  9990
2 19531  98.4091 271.1722 0010582 205.9044 154.1602 14.15279955703900
NOAA 12 [-]             
1 21263U 91032A   21272.53850326  .00000005  00000-0  19819-4 0  9992
2 21263  98.5087 274.8101 0014188  27.3028 332.8895 14.25950558579542
NOAA 13 [-]             
1 22739U 93050A   21272.96855762  .00000041  00000-0  44324-4 0  9998
2 22739  98.4775 261.1853 0009867  16.5253 343.6240 14.12795313450516
NOAA 14 [-]             
1 23455U 94089A   21272.54992754 -.00000007  00000-0  18071-4 0  9997
2 23455  98.4818 307.9381 0009379   1.5526 358.5675 14.14168985379833
NOAA 15 [B]             
1 25338U 98030A   21273.12064506  .00000031  00000-0  31455-4 0  9996
2 25338  98.6755 300.6742 0009915 341.9328  18.1498 14.26060296216162
NOAA 16 [-]             
1 26536U 00055A   21272.44390793 -.00000001  00000-0  22023-4 0  9990
2 26536  98.6766 334.8330 0010478 184.6817 175.4259 14.13287599380480
NOAA 17 [-]             
1 27453U 02032A   21272.88102304  .00000048  00000-0  39285-4 0  9991
2 27453  98.6360 216.6631 0011086 314.4726  45.5546 14.25071283  1758
NOAA 18 [B]             
1 28654U 05018A   21273.13178770  .00000097  00000-0  76550-4 0  9991
2 28654  98.9841 338.3636 0013908 350.8911   9.2006 14.12642193843315
NOAA 19 [+]             
1 33591U 09005A   21273.10505319  .00000033  00000-0  43006-4 0  9997
2 33591  99.1791 296.3810 0013705 195.2438 164.8321 14.12497702651695
SUOMI NPP [+]           
1 37849U 11061A   21272.97097972  .00000022  00000-0  31391-4 0  9999
2 37849  98.7426 210.2728 0001243  64.0114 354.8947 14.19544415514230
NOAA 20 [+]             
1 43013U 17073A   21272.92380800  .00000023  00000-0  31871-4 0  9992
2 43013  98.7258 210.0004 0001407  80.4840 279.6495 14.19555111200260
ORBCOMM-X [-]           
1 21576U 91050C   21273.14115586  .00000052  00000-0  29449-4 0  9991
2 21576  98.5191 335.0226 0002870 324.4968  35.6030 14.41672139586879
ORBCOMM FM01 [-]        
1 23545U 95017A   21273.08232010  .00000557  00000-0  10034-3 0  9990
2 23545  69.9691 150.2769 0006573 215.8680 144.2025 14.71979832412514
ORBCOMM FM02 [-]        
1 23546U 95017B   21272.13331771  .00000649  00000-0  11772-3 0  9992
2 23546  69.9717 168.9468 0007648 200.7717 159.3118 14.70929955411748
ORBCOMM FM08 [+]        
1 25112U 97084A   21272.91821808  .00000281  00000-0  13513-3 0  9997
2 25112  45.0180 354.3533 0010008 246.8034 113.1761 14.39323516245832
ORBCOMM FM10 [+]        
1 25113U 97084B   21272.55700865  .00000245  00000-0  12372-3 0  9999
2 25113  45.0194 357.5931 0007745 223.0303 136.9941 14.39322598420764
ORBCOMM FM11 [+]        
1 25114U 97084C   21272.51129934  .00000268  00000-0  13128-3 0  9993
2 25114  45.0177 357.2860 0008552 223.3003 136.7174 14.39249480245737
ORBCOMM FM12 [+]        
1 25115U 97084D   21272.54525520  .00000245  00000-0  12372-3 0  9993
2 25115  45.0185 356.8088 0007458 224.6078 135.4171 14.39267293245537
ORBCOMM FM09 [+]        
1 25116U 97084E   21272.96181409  .00000265  00000-0  13013-3 0  9999
2 25116  45.0190 355.3684 0008436 215.4990 144.5299 14.39270362245834
ORBCOMM FM05 [+]        
1 25117U 97084F   21272.94236351  .00000258  00000-0  12795-3 0  9993
2 25117  45.0185 355.7349 0004315 238.0546 121.9883 14.39251182245827
ORBCOMM FM06 [+]        
1 25118U 97084G   21272.49443148  .00000209  00000-0  11237-3 0  9994
2 25118  45.0183 357.3849 0004219 238.3155 136.2798 14.39301522245740
ORBCOMM FM07 [+]        
1 25119U 97084H   21272.52891699  .00000231  00000-0  11922-3 0  9993
2 25119  45.0177 357.5450 0005770 226.5138 133.5231 14.39285191245742
ORBCOMM FM03 [-]        
1 25158U 98007B   21272.71670512  .00000282  00000-0  15903-3 0  9991
2 25158 107.9947 240.7171 0046419  86.3593 274.2851 14.29747461230076
ORBCOMM FM04 [+]        
1 25159U 98007C   21272.47202286  .00000264  00000-0  15174-3 0  9994
2 25159 107.9934 242.4630 0041922  85.4746 275.1179 14.30028985230041
ORBCOMM FM17 [-]        
1 25413U 98046A   21273.04895852  .00000079  00000-0  82189-4 0  9996
2 25413  44.9948 151.2333 0002491 324.6086  35.4594 14.31103166208880
ORBCOMM FM18 [+]        
1 25414U 98046B   21272.78730441  .00000252  00000-0  14159-3 0  9993
2 25414  44.9947  96.6637 0003362 343.9157  16.1582 14.33211113209574
ORBCOMM FM19 [+]        
1 25415U 98046C   21272.83417940  .00000151  00000-0  10524-3 0  9996
2 25415  44.9954  97.1189 0002170 333.0165  41.5025 14.33172450209581
ORBCOMM FM20 [+]        
1 25416U 98046D   21272.22067398  .00000164  00000-0  11016-3 0  9999
2 25416  44.9950 100.3157 0000575 111.2401 248.8506 14.33142802209401
ORBCOMM FM16 [-]        
1 25417U 98046E   21273.08184466  .00000274  00000-0  14877-3 0  9991
2 25417  44.9951  95.8148 0003279   6.0976 353.9909 14.33427220209644
ORBCOMM FM15 [+]        
1 25418U 98046F   21272.47810847  .00000209  00000-0  12592-3 0  9993
2 25418  44.9982 100.8860 0003081   9.5071   6.0378 14.33232653209350
ORBCOMM FM14 [+]        
1 25419U 98046G   21272.82849863  .00000220  00000-0  13001-3 0  9992
2 25419  44.9975  98.9263 0001649   5.9073   8.6827 14.33251203209581
ORBCOMM FM13 [+]        
1 25420U 98046H   21272.81980730  .00000156  00000-0  10744-3 0  9991
2 25420  44.9983 100.9020 0003950 346.7557  13.3185 14.33055174209586
ORBCOMM FM21 [+]        
1 25475U 98053A   21273.06935596  .00000145  00000-0  10322-3 0  9997
2 25475  45.0092 183.4232 0002135 336.8206  23.2544 14.33131797202831
